QIANFAN-17              
1 60395U 24140S   25264.59607731  .00000102  00000+0  13924-3 0  9995
2 60395  88.9792 307.9393 0017129  85.2523 275.0584 13.50970261 57048
QIANFAN-18              
1 60396U 24140T   25264.64960994  .00000076  00000+0  98149-4 0  9998
2 60396  88.9784 307.4736 0016224  70.0129 290.2768 13.50971948 56444
QIANFAN-19              
1 61552U 24185A   25264.58024285  .00000591  00000+0  30285-3 0  9997
2 61552  88.9753  87.3614 0006253 191.7055 168.3987 14.14158664 58054
QIANFAN-20              
1 61553U 24185B   25264.57920238  .00000643  00000+0  36561-3 0  9991
2 61553  88.9752  87.6027 0004231 235.4281 124.6504 14.08709649 57929
QIANFAN-21              
1 61554U 24185C   25264.59039471  .00000864  00000+0  38182-3 0  9990
2 61554  88.9668  86.6068 0008530 271.0749  88.9465 14.22423828 58298
QIANFAN-22              
1 61555U 24185D   25264.57687149  .00000252  00000+0  20681-3 0  9996
2 61555  88.9737  88.2539 0004860 236.8487 123.2218 13.86256621 57558
QIANFAN-23              
1 61556U 24185E   25264.60063762  .00000774  00000+0  38477-3 0  9991
2 61556  88.9746  87.2069 0006656 207.4335 152.6503 14.16140536 58125
QIANFAN-24              
1 61557U 24185F   25264.59227389  .00000909  00000+0  39280-3 0  9990
2 61557  88.9728  86.7472 0008883 194.2824 165.8118 14.23628058 58337
