<?xml version="1.0" encoding="UTF-8"?>
<ndm xmlns:xsi="http://www.w3.org/2001/XMLSchema-instance" xsi:noNamespaceSchemaLocation="https://sanaregistry.org/r/ndmxml_unqualified/ndmxml-2.0.0-master-2.0.xsd">
<omm id="CCSDS_OMM_VERS" version="2.0">
<header><CREATION_DATE/><ORIGINATOR/></header><body><segment><metadata><OBJECT_NAME>QIANFAN-17</OBJECT_NAME><OBJECT_ID>2024-140S</OBJECT_ID><CENTER_NAME>EARTH</CENTER_NAME><REF_FRAME>TEME</REF_FRAME><TIME_SYSTEM>UTC</TIME_SYSTEM><MEAN_ELEMENT_THEORY>SGP4</MEAN_ELEMENT_THEORY></metadata><data><meanElements><EPOCH>2025-09-21T14:18:21.079584</EPOCH><MEAN_MOTION>13.50970261</MEAN_MOTION><ECCENTRICITY>.00171292</ECCENTRICITY><INCLINATION>88.9792</INCLINATION><RA_OF_ASC_NODE>307.9393</RA_OF_ASC_NODE><ARG_OF_PERICENTER>85.2523</ARG_OF_PERICENTER><MEAN_ANOMALY>275.0584</MEAN_ANOMALY></meanElements><tleParameters><EPHEMERIS_TYPE>0</EPHEMERIS_TYPE><CLASSIFICATION_TYPE>U</CLASSIFICATION_TYPE><NORAD_CAT_ID>60395</NORAD_CAT_ID><ELEMENT_SET_NO>999</ELEMENT_SET_NO><REV_AT_EPOCH>5704</REV_AT_EPOCH><BSTAR>.13923957E-3</BSTAR><MEAN_MOTION_DOT>.102E-5</MEAN_MOTION_DOT><MEAN_MOTION_DDOT>0</MEAN_MOTION_DDOT></tleParameters></data></segment></body></omm>
<omm id="CCSDS_OMM_VERS" version="2.0">
<header><CREATION_DATE/><ORIGINATOR/></header><body><segment><metadata><OBJECT_NAME>QIANFAN-18</OBJECT_NAME><OBJECT_ID>2024-140T</OBJECT_ID><CENTER_NAME>EARTH</CENTER_NAME><REF_FRAME>TEME</REF_FRAME><TIME_SYSTEM>UTC</TIME_SYSTEM><MEAN_ELEMENT_THEORY>SGP4</MEAN_ELEMENT_THEORY></metadata><data><meanElements><EPOCH>2025-09-21T15:35:26.298816</EPOCH><MEAN_MOTION>13.50971948</MEAN_MOTION><ECCENTRICITY>.00162246</ECCENTRICITY><INCLINATION>88.9784</INCLINATION><RA_OF_ASC_NODE>307.4736</RA_OF_ASC_NODE><ARG_OF_PERICENTER>70.0129</ARG_OF_PERICENTER><MEAN_ANOMALY>290.2768</MEAN_ANOMALY></meanElements><tleParameters><EPHEMERIS_TYPE>0</EPHEMERIS_TYPE><CLASSIFICATION_TYPE>U</CLASSIFICATION_TYPE><NORAD_CAT_ID>60396</NORAD_CAT_ID><ELEMENT_SET_NO>999</ELEMENT_SET_NO><REV_AT_EPOCH>5644</REV_AT_EPOCH><BSTAR>.98148962E-4</BSTAR><MEAN_MOTION_DOT>.76E-6</MEAN_MOTION_DOT><MEAN_MOTION_DDOT>0</MEAN_MOTION_DDOT></tleParameters></data></segment></body></omm>
<omm id="CCSDS_OMM_VERS" version="2.0">
<header><CREATION_DATE/><ORIGINATOR/></header><body><segment><metadata><OBJECT_NAME>QIANFAN-19</OBJECT_NAME><OBJECT_ID>2024-185A</OBJECT_ID><CENTER_NAME>EARTH</CENTER_NAME><REF_FRAME>TEME</REF_FRAME><TIME_SYSTEM>UTC</TIME_SYSTEM><MEAN_ELEMENT_THEORY>SGP4</MEAN_ELEMENT_THEORY></metadata><data><meanElements><EPOCH>2025-09-21T13:55:32.982240</EPOCH><MEAN_MOTION>14.14158664</MEAN_MOTION><ECCENTRICITY>.00062536</ECCENTRICITY><INCLINATION>88.9753</INCLINATION><RA_OF_ASC_NODE>87.3614</RA_OF_ASC_NODE><ARG_OF_PERICENTER>191.7055</ARG_OF_PERICENTER><MEAN_ANOMALY>168.3987</MEAN_ANOMALY></meanElements><tleParameters><EPHEMERIS_TYPE>0</EPHEMERIS_TYPE><CLASSIFICATION_TYPE>U</CLASSIFICATION_TYPE><NORAD_CAT_ID>61552</NORAD_CAT_ID><ELEMENT_SET_NO>999</ELEMENT_SET_NO><REV_AT_EPOCH>5805</REV_AT_EPOCH><BSTAR>.30284727E-3</BSTAR><MEAN_MOTION_DOT>.591E-5</MEAN_MOTION_DOT><MEAN_MOTION_DDOT>0</MEAN_MOTION_DDOT></tleParameters></data></segment></body></omm>
<omm id="CCSDS_OMM_VERS" version="2.0">
<header><CREATION_DATE/><ORIGINATOR/></header><body><segment><metadata><OBJECT_NAME>QIANFAN-20</OBJECT_NAME><OBJECT_ID>2024-185B</OBJECT_ID><CENTER_NAME>EARTH</CENTER_NAME><REF_FRAME>TEME</REF_FRAME><TIME_SYSTEM>UTC</TIME_SYSTEM><MEAN_ELEMENT_THEORY>SGP4</MEAN_ELEMENT_THEORY></metadata><data><meanElements><EPOCH>2025-09-21T13:54:03.085632</EPOCH><MEAN_MOTION>14.08709649</MEAN_MOTION><ECCENTRICITY>.0004231</ECCENTRICITY><INCLINATION>88.9752</INCLINATION><RA_OF_ASC_NODE>87.6027</RA_OF_ASC_NODE><ARG_OF_PERICENTER>235.4281</ARG_OF_PERICENTER><MEAN_ANOMALY>124.6504</MEAN_ANOMALY></meanElements><tleParameters><EPHEMERIS_TYPE>0</EPHEMERIS_TYPE><CLASSIFICATION_TYPE>U</CLASSIFICATION_TYPE><NORAD_CAT_ID>61553</NORAD_CAT_ID><ELEMENT_SET_NO>999</ELEMENT_SET_NO><REV_AT_EPOCH>5792</REV_AT_EPOCH><BSTAR>.36560869E-3</BSTAR><MEAN_MOTION_DOT>.643E-5</MEAN_MOTION_DOT><MEAN_MOTION_DDOT>0</MEAN_MOTION_DDOT></tleParameters></data></segment></body></omm>
<omm id="CCSDS_OMM_VERS" version="2.0">
<header><CREATION_DATE/><ORIGINATOR/></header><body><segment><metadata><OBJECT_NAME>QIANFAN-21</OBJECT_NAME><OBJECT_ID>2024-185C</OBJECT_ID><CENTER_NAME>EARTH</CENTER_NAME><REF_FRAME>TEME</REF_FRAME><TIME_SYSTEM>UTC</TIME_SYSTEM><MEAN_ELEMENT_THEORY>SGP4</MEAN_ELEMENT_THEORY></metadata><data><meanElements><EPOCH>2025-09-21T14:10:10.102944</EPOCH><MEAN_MOTION>14.22423828</MEAN_MOTION><ECCENTRICITY>.00085305</ECCENTRICITY><INCLINATION>88.9668</INCLINATION><RA_OF_ASC_NODE>86.6068</RA_OF_ASC_NODE><ARG_OF_PERICENTER>271.0749</ARG_OF_PERICENTER><MEAN_ANOMALY>88.9465</MEAN_ANOMALY></meanElements><tleParameters><EPHEMERIS_TYPE>0</EPHEMERIS_TYPE><CLASSIFICATION_TYPE>U</CLASSIFICATION_TYPE><NORAD_CAT_ID>61554</NORAD_CAT_ID><ELEMENT_SET_NO>999</ELEMENT_SET_NO><REV_AT_EPOCH>5829</REV_AT_EPOCH><BSTAR>.38182111E-3</BSTAR><MEAN_MOTION_DOT>.864E-5</MEAN_MOTION_DOT><MEAN_MOTION_DDOT>0</MEAN_MOTION_DDOT></tleParameters></data></segment></body></omm>
<omm id="CCSDS_OMM_VERS" version="2.0">
<header><CREATION_DATE/><ORIGINATOR/></header><body><segment><metadata><OBJECT_NAME>QIANFAN-22</OBJECT_NAME><OBJECT_ID>2024-185D</OBJECT_ID><CENTER_NAME>EARTH</CENTER_NAME><REF_FRAME>TEME</REF_FRAME><TIME_SYSTEM>UTC</TIME_SYSTEM><MEAN_ELEMENT_THEORY>SGP4</MEAN_ELEMENT_THEORY></metadata><data><meanElements><EPOCH>2025-09-21T13:50:41.696736</EPOCH><MEAN_MOTION>13.86256621</MEAN_MOTION><ECCENTRICITY>.00048603</ECCENTRICITY><INCLINATION>88.9737</INCLINATION><RA_OF_ASC_NODE>88.2539</RA_OF_ASC_NODE><ARG_OF_PERICENTER>236.8487</ARG_OF_PERICENTER><MEAN_ANOMALY>123.2218</MEAN_ANOMALY></meanElements><tleParameters><EPHEMERIS_TYPE>0</EPHEMERIS_TYPE><CLASSIFICATION_TYPE>U</CLASSIFICATION_TYPE><NORAD_CAT_ID>61555</NORAD_CAT_ID><ELEMENT_SET_NO>999</ELEMENT_SET_NO><REV_AT_EPOCH>5755</REV_AT_EPOCH><BSTAR>.20680823E-3</BSTAR><MEAN_MOTION_DOT>.252E-5</MEAN_MOTION_DOT><MEAN_MOTION_DDOT>0</MEAN_MOTION_DDOT></tleParameters></data></segment></body></omm>
<omm id="CCSDS_OMM_VERS" version="2.0">
<header><CREATION_DATE/><ORIGINATOR/></header><body><segment><metadata><OBJECT_NAME>QIANFAN-23</OBJECT_NAME><OBJECT_ID>2024-185E</OBJECT_ID><CENTER_NAME>EARTH</CENTER_NAME><REF_FRAME>TEME</REF_FRAME><TIME_SYSTEM>UTC</TIME_SYSTEM><MEAN_ELEMENT_THEORY>SGP4</MEAN_ELEMENT_THEORY></metadata><data><meanElements><EPOCH>2025-09-21T14:24:55.090368</EPOCH><MEAN_MOTION>14.16140536</MEAN_MOTION><ECCENTRICITY>.00066568</ECCENTRICITY><INCLINATION>88.9746</INCLINATION><RA_OF_ASC_NODE>87.2069</RA_OF_ASC_NODE><ARG_OF_PERICENTER>207.4335</ARG_OF_PERICENTER><MEAN_ANOMALY>152.6503</MEAN_ANOMALY></meanElements><tleParameters><EPHEMERIS_TYPE>0</EPHEMERIS_TYPE><CLASSIFICATION_TYPE>U</CLASSIFICATION_TYPE><NORAD_CAT_ID>61556</NORAD_CAT_ID><ELEMENT_SET_NO>999</ELEMENT_SET_NO><REV_AT_EPOCH>5812</REV_AT_EPOCH><BSTAR>.38477071E-3</BSTAR><MEAN_MOTION_DOT>.774E-5</MEAN_MOTION_DOT><MEAN_MOTION_DDOT>0</MEAN_MOTION_DDOT></tleParameters></data></segment></body></omm>
<omm id="CCSDS_OMM_VERS" version="2.0">
<header><CREATION_DATE/><ORIGINATOR/></header><body><segment><metadata><OBJECT_NAME>QIANFAN-24</OBJECT_NAME><OBJECT_ID>2024-185F</OBJECT_ID><CENTER_NAME>EARTH</CENTER_NAME><REF_FRAME>TEME</REF_FRAME><TIME_SYSTEM>UTC</TIME_SYSTEM><MEAN_ELEMENT_THEORY>SGP4</MEAN_ELEMENT_THEORY></metadata><data><meanElements><EPOCH>2025-09-21T14:12:52.464096</EPOCH><MEAN_MOTION>14.23628058</MEAN_MOTION><ECCENTRICITY>.00088836</ECCENTRICITY><INCLINATION>88.9728</INCLINATION><RA_OF_ASC_NODE>86.7472</RA_OF_ASC_NODE><ARG_OF_PERICENTER>194.2824</ARG_OF_PERICENTER><MEAN_ANOMALY>165.8118</MEAN_ANOMALY></meanElements><tleParameters><EPHEMERIS_TYPE>0</EPHEMERIS_TYPE><CLASSIFICATION_TYPE>U</CLASSIFICATION_TYPE><NORAD_CAT_ID>61557</NORAD_CAT_ID><ELEMENT_SET_NO>999</ELEMENT_SET_NO><REV_AT_EPOCH>5833</REV_AT_EPOCH><BSTAR>.39279968E-3</BSTAR><MEAN_MOTION_DOT>.909E-5</MEAN_MOTION_DOT><MEAN_MOTION_DDOT>0</MEAN_MOTION_DDOT></tleParameters></data></segment></body></omm>

</ndm>
